{"type":"FeatureCollection","features":[{"type":"Feature","properties":{"station_name":"Sheetz Store #540","fuel_type_code":"E85","address":"4000 Lufkin Rd","city":"Apex","zip":27539},"geometry":{"type":"Point","coordinates":[-78.82072,35.72214]}},{"type":"Feature","properties":{"station_name":"Saunders Street Parking","fuel_type_code":"ELEC","address":"112 Saunders St","city":"Apex","zip":27502},"geometry":{"type":"Point","coordinates":[-78.85160787,35.73238466]}},{"type":"Feature","properties":{"station_name":"MB CARY PARKING LOT 1","fuel_type_code":"ELEC","address":"2400 Autopark Blvd","city":"Apex","zip":27502},"geometry":{"type":"Point","coordinates":[-78.81497,35.73733]}},{"type":"Feature","properties":{"station_name":"TMSA APEX 02","fuel_type_code":"ELEC","address":"351 New Hill Olive Chapel Rd","city":"Apex","zip":27523},"geometry":{"type":"Point","coordinates":[-78.944706,35.738745]}},{"type":"Feature","properties":{"station_name":"Apex - Public Works Building","fuel_type_code":"ELEC","address":"105 Upchurch St","city":"Apex","zip":27502},"geometry":{"type":"Point","coordinates":[-78.8576,35.72931]}},{"type":"Feature","properties":{"station_name":"New Electrical Works Building","fuel_type_code":"ELEC","address":"2300 Mt Zion Church Rd","city":"Apex","zip":27502},"geometry":{"type":"Point","coordinates":[-78.91857,35.71492]}},{"type":"Feature","properties":{"station_name":"WMG APEX NC APEX NC","fuel_type_code":"ELEC","address":"620 Chessie Station","city":"Apex","zip":27502},"geometry":{"type":"Point","coordinates":[-78.842883,35.737789]}},{"type":"Feature","properties":{"station_name":"Ford Charge - Crossroads Ford","fuel_type_code":"ELEC","address":"1501 N Salem St","city":"Apex","zip":27502},"geometry":{"type":"Point","coordinates":[-78.85235126,35.74797322]}},{"type":"Feature","properties":{"station_name":"Leith Nissan","fuel_type_code":"ELEC","address":"2100 Auto Park Blvd","city":"Cary","zip":27511},"geometry":{"type":"Point","coordinates":[-78.81293,35.73859]}},{"type":"Feature","properties":{"station_name":"Umstead Hotel and Spa","fuel_type_code":"ELEC","address":"100 Woodland Pond Dr","city":"Cary","zip":27513},"geometry":{"type":"Point","coordinates":[-78.7646,35.82973]}},{"type":"Feature","properties":{"station_name":"West Regional Library","fuel_type_code":"ELEC","address":"4000 Louis Stephens Dr","city":"Cary","zip":27519},"geometry":{"type":"Point","coordinates":[-78.864062,35.815061]}},{"type":"Feature","properties":{"station_name":"WEINSTEIN CARPENTER1","fuel_type_code":"ELEC","address":"2074 Geddy House Ln","city":"Cary","zip":27519},"geometry":{"type":"Point","coordinates":[-78.859447,35.82114]}},{"type":"Feature","properties":{"station_name":"WEINSTEIN TRIANGLE1","fuel_type_code":"ELEC","address":"1200 Pickett Branch Rd","city":"Cary","zip":27519},"geometry":{"type":"Point","coordinates":[-78.89673,35.857658]}},{"type":"Feature","properties":{"station_name":"The Umstead Hotel and Spa - Tesla Destination","fuel_type_code":"ELEC","address":"100 Woodland Pond Dr","city":"Cary","zip":27513},"geometry":{"type":"Point","coordinates":[-78.76476,35.82945]}},{"type":"Feature","properties":{"station_name":"The Mayton Inn - Tesla Destination","fuel_type_code":"ELEC","address":"301 S Academy St","city":"Cary","zip":27511},"geometry":{"type":"Point","coordinates":[-78.780676,35.784968]}},{"type":"Feature","properties":{"station_name":"HIGHWOODS RTP CENTREGREEN 1","fuel_type_code":"ELEC","address":"5000 Centregreen Way","city":"Cary","zip":27513},"geometry":{"type":"Point","coordinates":[-78.79456,35.82667]}},{"type":"Feature","properties":{"station_name":"TOWN OF CARY DT DECK P5","fuel_type_code":"ELEC","address":"113 Walnut St","city":"Cary","zip":27511},"geometry":{"type":"Point","coordinates":[-78.779345,35.783205]}},{"type":"Feature","properties":{"station_name":"Parkside Town Commons - Tesla Supercharger","fuel_type_code":"ELEC","address":"7119 O'Kelly Chapel Road","city":"Cary","zip":27519},"geometry":{"type":"Point","coordinates":[-78.886368,35.84359]}},{"type":"Feature","properties":{"station_name":"McDonald's Store #27548","fuel_type_code":"ELEC","address":"3494 Kildaire Farm Road","city":"Cary","zip":27518},"geometry":{"type":"Point","coordinates":[-78.795636,35.704118]}},{"type":"Feature","properties":{"station_name":"Target 0961 - Cary, NC","fuel_type_code":"ELEC","address":"2021 Walnut Street","city":"Cary","zip":27518},"geometry":{"type":"Point","coordinates":[-78.73923,35.7586]}},{"type":"Feature","properties":{"station_name":"Homewood Suites by Hilton Raleigh Cary I-40 - Tesla Destination","fuel_type_code":"ELEC","address":"555 Crossroads Blvd","city":"Cary","zip":27518},"geometry":{"type":"Point","coordinates":[-78.732543,35.758438]}},{"type":"Feature","properties":{"station_name":"Sheetz Store #675","fuel_type_code":"E85","address":"101 Kumar Ct","city":"Cary","zip":27606},"geometry":{"type":"Point","coordinates":[-78.73679,35.74612]}},{"type":"Feature","properties":{"station_name":"HIGHWOODS RTP CENTREGREEN 3","fuel_type_code":"ELEC","address":"5000 Centregreen Way","city":"Cary","zip":27513},"geometry":{"type":"Point","coordinates":[-78.794705,35.826449]}},{"type":"Feature","properties":{"station_name":"HIGHWOODS RTP CENTREGREEN 2","fuel_type_code":"ELEC","address":"5000 Centregreen Way","city":"Cary","zip":27513},"geometry":{"type":"Point","coordinates":[-78.794769,35.826509]}},{"type":"Feature","properties":{"station_name":"TOWN OF CARY DT DECK P3 WEST","fuel_type_code":"ELEC","address":"113 Walnut St","city":"Cary","zip":27511},"geometry":{"type":"Point","coordinates":[-78.779283,35.785283]}},{"type":"Feature","properties":{"station_name":"TOWN OF CARY DT DECK P2 (1)","fuel_type_code":"ELEC","address":"113 Walnut St","city":"Cary","zip":27511},"geometry":{"type":"Point","coordinates":[-78.779412,35.785448]}},{"type":"Feature","properties":{"station_name":"TOWN OF CARY DT DECK P6","fuel_type_code":"ELEC","address":"113 Walnut St","city":"Cary","zip":27511},"geometry":{"type":"Point","coordinates":[-78.779495,35.785228]}},{"type":"Feature","properties":{"station_name":"TOWN OF CARY DT DECK P4","fuel_type_code":"ELEC","address":"113 Walnut St","city":"Cary","zip":27511},"geometry":{"type":"Point","coordinates":[-78.779366,35.783205]}},{"type":"Feature","properties":{"station_name":"TOWN OF CARY DT DECK P3 EAST","fuel_type_code":"ELEC","address":"113 Walnut St","city":"Cary","zip":27511},"geometry":{"type":"Point","coordinates":[-78.77927,35.783205]}},{"type":"Feature","properties":{"station_name":"TOWN OF CARY DT DECK P2 (2)","fuel_type_code":"ELEC","address":"113 Walnut St","city":"Cary","zip":27511},"geometry":{"type":"Point","coordinates":[-78.779701,35.785387]}},{"type":"Feature","properties":{"station_name":"CARY ACADEMY STATION 1","fuel_type_code":"ELEC","address":"1500 N Harrison Ave","city":"Cary","zip":27513},"geometry":{"type":"Point","coordinates":[-78.769618,35.819369]}},{"type":"Feature","properties":{"station_name":"CARY ACADEMY STATION 2","fuel_type_code":"ELEC","address":"1500 N Harrison Ave","city":"Cary","zip":27513},"geometry":{"type":"Point","coordinates":[-78.769492,35.819353]}},{"type":"Feature","properties":{"station_name":"CARY TMSA CARY 01","fuel_type_code":"ELEC","address":"312 Gregson Dr","city":"Cary","zip":27511},"geometry":{"type":"Point","coordinates":[-78.8058,35.733006]}},{"type":"Feature","properties":{"station_name":"URBAN PLACE URBAN PLACE","fuel_type_code":"ELEC","address":"400 E Chatham St","city":"Cary","zip":27511},"geometry":{"type":"Point","coordinates":[-78.773542,35.788277]}},{"type":"Feature","properties":{"station_name":"KNIER PROPERTIE MACGREGOR MPG","fuel_type_code":"ELEC","address":"114 Edinburgh S Dr","city":"Cary","zip":27511},"geometry":{"type":"Point","coordinates":[-78.80107,35.739132]}},{"type":"Feature","properties":{"station_name":"Cary NC 121 Edinburgh S Dr","fuel_type_code":"ELEC","address":"121 Edinburgh S Dr","city":"Cary","zip":27511},"geometry":{"type":"Point","coordinates":[-78.802645,35.739228]}},{"type":"Feature","properties":{"station_name":"Harrison Square - Tesla Supercharger","fuel_type_code":"ELEC","address":"801 Bass Pro Ln","city":"Cary","zip":27513},"geometry":{"type":"Point","coordinates":[-78.769034,35.831562]}},{"type":"Feature","properties":{"station_name":"Shoppes of Kildaire","fuel_type_code":"ELEC","address":"1394 Kildaire Farm Rd","city":"Cary","zip":27511},"geometry":{"type":"Point","coordinates":[-78.782208,35.761411]}},{"type":"Feature","properties":{"station_name":"Sheetz","fuel_type_code":"ELEC","address":"4010 Convenience Lane","city":"Cary","zip":27519},"geometry":{"type":"Point","coordinates":[-78.89462,35.86046]}},{"type":"Feature","properties":{"station_name":"SAS Building T","fuel_type_code":"ELEC","address":"701 SAS Campus Drive","city":"Cary","zip":27513},"geometry":{"type":"Point","coordinates":[-78.751816,35.823008]}},{"type":"Feature","properties":{"station_name":"JLR CARY LEITH 2 - BAY2","fuel_type_code":"ELEC","address":"1000 Autopark Blvd","city":"Cary","zip":27511},"geometry":{"type":"Point","coordinates":[-78.815512,35.739531]}},{"type":"Feature","properties":{"station_name":"SAS INSTITUTE BLDG R - A & B","fuel_type_code":"ELEC","address":"500 SAS Campus Dr","city":"Cary","zip":27513},"geometry":{"type":"Point","coordinates":[-78.757049,35.824844]}},{"type":"Feature","properties":{"station_name":"SAS INSTITUTE BLDG R - E & F","fuel_type_code":"ELEC","address":"500 SAS Campus Dr","city":"Cary","zip":27513},"geometry":{"type":"Point","coordinates":[-78.757299,35.824711]}},{"type":"Feature","properties":{"station_name":"SAS INSTITUTE BLDG R - G & H","fuel_type_code":"ELEC","address":"500 SAS Campus Dr","city":"Cary","zip":27513},"geometry":{"type":"Point","coordinates":[-78.757256,35.824803]}},{"type":"Feature","properties":{"station_name":"SAS INSTITUTE BLDG R - C & D","fuel_type_code":"ELEC","address":"500 SAS Campus Dr","city":"Cary","zip":27513},"geometry":{"type":"Point","coordinates":[-78.757374,35.82452]}},{"type":"Feature","properties":{"station_name":"SAS INSTITUTE BLDG U - C & D","fuel_type_code":"ELEC","address":"720 SAS Campus Dr","city":"Cary","zip":27513},"geometry":{"type":"Point","coordinates":[-78.75311,35.82086]}},{"type":"Feature","properties":{"station_name":"SAS INSTITUTE BLDG U - A & B","fuel_type_code":"ELEC","address":"720 SAS Campus Dr","city":"Cary","zip":27513},"geometry":{"type":"Point","coordinates":[-78.75303,35.8208]}},{"type":"Feature","properties":{"station_name":"SAS INSTITUTE BLDG C - A & B","fuel_type_code":"ELEC","address":"820 SAS Campus Dr","city":"Cary","zip":27513},"geometry":{"type":"Point","coordinates":[-78.751378,35.818215]}},{"type":"Feature","properties":{"station_name":"SAS INSTITUTE BLDG C - C & D","fuel_type_code":"ELEC","address":"820 SAS Campus Dr","city":"Cary","zip":27513},"geometry":{"type":"Point","coordinates":[-78.751429,35.818229]}},{"type":"Feature","properties":{"station_name":"FENTON EV CHARGING S11","fuel_type_code":"ELEC","address":"921 Walnut Slope Ln","city":"Cary","zip":27511},"geometry":{"type":"Point","coordinates":[-78.757356,35.782027]}},{"type":"Feature","properties":{"station_name":"FENTON EV CHARGING S 7","fuel_type_code":"ELEC","address":"10 Fenton Main St","city":"Cary","zip":27511},"geometry":{"type":"Point","coordinates":[-78.757526,35.780988]}},{"type":"Feature","properties":{"station_name":"FENTON EV CHARGING S 6","fuel_type_code":"ELEC","address":"5 Fenton Main St","city":"Cary","zip":27511},"geometry":{"type":"Point","coordinates":[-78.757814,35.781365]}},{"type":"Feature","properties":{"station_name":"FENTON EV CHARGING S 5","fuel_type_code":"ELEC","address":"10 Fenton Main St","city":"Cary","zip":27511},"geometry":{"type":"Point","coordinates":[-78.7575,35.780815]}},{"type":"Feature","properties":{"station_name":"FENTON EV CHARGING S10","fuel_type_code":"ELEC","address":"850 Lower Gdn Ln","city":"Cary","zip":27511},"geometry":{"type":"Point","coordinates":[-78.757238,35.780946]}},{"type":"Feature","properties":{"station_name":"FENTON EV CHARGING S 9","fuel_type_code":"ELEC","address":"10 Fenton Main St","city":"Cary","zip":27511},"geometry":{"type":"Point","coordinates":[-78.757346,35.78106]}},{"type":"Feature","properties":{"station_name":"FENTON EV CHARGING S12","fuel_type_code":"ELEC","address":"10 Fenton Main St","city":"Cary","zip":27511},"geometry":{"type":"Point","coordinates":[-78.757312,35.780969]}},{"type":"Feature","properties":{"station_name":"FENTON EV CHARGING S 8","fuel_type_code":"ELEC","address":"21 Fenton Main St","city":"Cary","zip":27511},"geometry":{"type":"Point","coordinates":[-78.757962,35.78126]}},{"type":"Feature","properties":{"station_name":"Wellington Park Shopping Center - Tesla Supercharger","fuel_type_code":"ELEC","address":"6430 Tryon Rd","city":"Cary","zip":27511},"geometry":{"type":"Point","coordinates":[-78.762278,35.74512]}},{"type":"Feature","properties":{"station_name":"Bainbridge Cary","fuel_type_code":"ELEC","address":"9205 Chapel Hill Road","city":"Cary","zip":27513},"geometry":{"type":"Point","coordinates":[-78.79928522,35.79866661]}},{"type":"Feature","properties":{"station_name":"Ashby Twin Lakes","fuel_type_code":"ELEC","address":"905 Lakeford Drive","city":"Cary","zip":27519},"geometry":{"type":"Point","coordinates":[-78.84713146,35.82444553]}},{"type":"Feature","properties":{"station_name":"BELLPRESTONRES STATION 2","fuel_type_code":"ELEC","address":"200 Berwick Valley Ln","city":"Cary","zip":27513},"geometry":{"type":"Point","coordinates":[-78.816983,35.797163]}},{"type":"Feature","properties":{"station_name":"BELLPRESTONRES STATION 1","fuel_type_code":"ELEC","address":"200 Berwick Valley Lane","city":"Cary","zip":27513},"geometry":{"type":"Point","coordinates":[-78.813656,35.797205]}},{"type":"Feature","properties":{"station_name":"Parkside Town Commons","fuel_type_code":"ELEC","address":"7129 Oâ€™Kelly Chapel Road","city":"Cary","zip":27519},"geometry":{"type":"Point","coordinates":[-78.891554,35.847601]}},{"type":"Feature","properties":{"station_name":"Noval Cary","fuel_type_code":"ELEC","address":"200 Henry Hill Street","city":"Cary","zip":27519},"geometry":{"type":"Point","coordinates":[-78.87684,35.83443]}},{"type":"Feature","properties":{"station_name":"Town of Cary - 101 Dry Avenue","fuel_type_code":"ELEC","address":"101 Dry Avenue","city":"Cary","zip":27511},"geometry":{"type":"Point","coordinates":[-78.781419,35.782672]}},{"type":"Feature","properties":{"station_name":"Meridian at Harrison Pointe","fuel_type_code":"ELEC","address":"799 Weeping Tree Drive","city":"Cary","zip":27513},"geometry":{"type":"Point","coordinates":[-78.78096,35.80736]}},{"type":"Feature","properties":{"station_name":"E&O AMBULATORY GREEN LVL MOB 2","fuel_type_code":"ELEC","address":"3213 Green Level W Rd","city":"Cary","zip":27519},"geometry":{"type":"Point","coordinates":[-78.890607,35.781922]}},{"type":"Feature","properties":{"station_name":"E&O AMBULATORY GREEN LVL MOB 1","fuel_type_code":"ELEC","address":"3213 Green Level W Rd","city":"Cary","zip":27519},"geometry":{"type":"Point","coordinates":[-78.890427,35.78212]}},{"type":"Feature","properties":{"station_name":"197 Bond Park Dr","fuel_type_code":"ELEC","address":"197 Bond Park Dr","city":"Cary","zip":27513},"geometry":{"type":"Point","coordinates":[-78.82555,35.781314]}},{"type":"Feature","properties":{"station_name":"Autopark Honda","fuel_type_code":"ELEC","address":"3630 Old Raleigh Road","city":"Cary","zip":27511},"geometry":{"type":"Point","coordinates":[-78.81120367,35.7381111]}},{"type":"Feature","properties":{"station_name":"searstone","fuel_type_code":"ELEC","address":"17001 searstone drive","city":"Cary","zip":27513},"geometry":{"type":"Point","coordinates":[-78.8445689,35.7889347]}},{"type":"Feature","properties":{"station_name":"ABB Cary Campus","fuel_type_code":"ELEC","address":"305 Gregson Dr","city":"Cary","zip":27511},"geometry":{"type":"Point","coordinates":[-78.80479442,35.73253731]}},{"type":"Feature","properties":{"station_name":"KB Johnson Oil & Gas Co","fuel_type_code":"LPG","address":"1709 N Main St","city":"Fuquay Varina","zip":27526},"geometry":{"type":"Point","coordinates":[-78.759114,35.597609]}},{"type":"Feature","properties":{"station_name":"Aldon at Powell and Broad","fuel_type_code":"ELEC","address":"141 Stobhill Lane","city":"Fuquay Varina","zip":27526},"geometry":{"type":"Point","coordinates":[-78.8117451,35.6137397]}},{"type":"Feature","properties":{"station_name":"Meridian at Broad St Markt LLC","fuel_type_code":"ELEC","address":"7000 Meridian Market Dr","city":"Fuquay Varina","zip":27526},"geometry":{"type":"Point","coordinates":[-78.799647,35.605206]}},{"type":"Feature","properties":{"station_name":"Ascend Varina Gateway","fuel_type_code":"ELEC","address":"300 Alex Ridge Drive","city":"Fuquay-Varina","zip":27526},"geometry":{"type":"Point","coordinates":[-78.81210027,35.61732195]}},{"type":"Feature","properties":{"station_name":"GARDENS EV CHARGER 2","fuel_type_code":"ELEC","address":"2120 Del Webb Gardens Dr","city":"Fuquay-Varina","zip":27526},"geometry":{"type":"Point","coordinates":[-78.764765,35.555173]}},{"type":"Feature","properties":{"station_name":"GARDENS EV CHARGER 1","fuel_type_code":"ELEC","address":"2120 Del Webb Gardens Dr","city":"Fuquay-Varina","zip":27526},"geometry":{"type":"Point","coordinates":[-78.764656,35.555169]}},{"type":"Feature","properties":{"station_name":"U-Haul","fuel_type_code":"LPG","address":"1702 Mechanical Blvd","city":"Garner","zip":27529},"geometry":{"type":"Point","coordinates":[-78.64714,35.72547]}},{"type":"Feature","properties":{"station_name":"Sheetz Store #607","fuel_type_code":"E85","address":"40 Cabela Dr","city":"Garner","zip":27529},"geometry":{"type":"Point","coordinates":[-78.58542,35.69813]}},{"type":"Feature","properties":{"station_name":"TIMBER CREEK EV STATION 01","fuel_type_code":"ELEC","address":"1623 Benson Rd","city":"Garner","zip":27529},"geometry":{"type":"Point","coordinates":[-78.601301,35.682323]}},{"type":"Feature","properties":{"station_name":"AVERSBORO LOFT STATION 1","fuel_type_code":"ELEC","address":"1419 State Rd 2710","city":"Garner","zip":27529},"geometry":{"type":"Point","coordinates":[-78.61629,35.693115]}},{"type":"Feature","properties":{"station_name":"Town of Garner - 902 7th Ave","fuel_type_code":"ELEC","address":"902 7th Ave","city":"Garner","zip":27529},"geometry":{"type":"Point","coordinates":[-78.621303,35.705849]}},{"type":"Feature","properties":{"station_name":"Town of Garner - 110 Purvis St","fuel_type_code":"ELEC","address":"110 Purvis St","city":"Garner","zip":27529},"geometry":{"type":"Point","coordinates":[-78.607044,35.706358]}},{"type":"Feature","properties":{"station_name":"Sheetz Store #659","fuel_type_code":"E85","address":"1100 Avent Ferry Rd","city":"Holly Springs","zip":27540},"geometry":{"type":"Point","coordinates":[-78.84444,35.63903]}},{"type":"Feature","properties":{"station_name":"H&V19197843967 HOLLY SPRINGS 2","fuel_type_code":"ELEC","address":"781 Avent Ferry Rd","city":"Holly Springs","zip":27540},"geometry":{"type":"Point","coordinates":[-78.83707,35.64296]}},{"type":"Feature","properties":{"station_name":"H&V19197843967 UNC HOLLY SPR 1","fuel_type_code":"ELEC","address":"709 Avent Ferry Rd","city":"Holly Springs","zip":27540},"geometry":{"type":"Point","coordinates":[-78.836945,35.6432]}},{"type":"Feature","properties":{"station_name":"Exchange at Holly Springs","fuel_type_code":"ELEC","address":"1101 Club Exchange Dr","city":"Holly Springs","zip":27540},"geometry":{"type":"Point","coordinates":[-78.8337,35.632]}},{"type":"Feature","properties":{"station_name":"TOWN HALL CT4000","fuel_type_code":"ELEC","address":"112 Avent Ferry Rd","city":"Holly Springs","zip":27540},"geometry":{"type":"Point","coordinates":[-78.834208,35.650398]}},{"type":"Feature","properties":{"station_name":"TOWN HALL DECK LEVEL 1","fuel_type_code":"ELEC","address":"217 Avent Ferry Rd","city":"Holly Springs","zip":27540},"geometry":{"type":"Point","coordinates":[-78.83454,35.649113]}},{"type":"Feature","properties":{"station_name":"The Town of Holly Springs","fuel_type_code":"ELEC","address":"1201 Grigsby Ave","city":"Holly Springs","zip":27540},"geometry":{"type":"Point","coordinates":[-78.827314,35.64218]}},{"type":"Feature","properties":{"station_name":"101 Sportsmanship Way","fuel_type_code":"ELEC","address":"101 Sportsmanship Way","city":"Holly Springs","zip":27540},"geometry":{"type":"Point","coordinates":[-78.837806,35.668103]}},{"type":"Feature","properties":{"station_name":"E&O AMBULATORY HOLLY SPRINGS","fuel_type_code":"ELEC","address":"401 Irving Pkwy","city":"Holly Springs","zip":27540},"geometry":{"type":"Point","coordinates":[-78.849712,35.657816]}},{"type":"Feature","properties":{"station_name":"TOWN HALL TOWN HALL / PAR","fuel_type_code":"ELEC","address":"2028 S Main St","city":"Holly Springs","zip":27540},"geometry":{"type":"Point","coordinates":[-78.83361,35.647738]}},{"type":"Feature","properties":{"station_name":"East Regional Library","fuel_type_code":"ELEC","address":"946 Steeple Square Rd","city":"Knightdale","zip":27545},"geometry":{"type":"Point","coordinates":[-78.487298,35.802473]}},{"type":"Feature","properties":{"station_name":"Sheetz Store #664","fuel_type_code":"E85","address":"6030 Village Park Dr","city":"Knightdale","zip":27545},"geometry":{"type":"Point","coordinates":[-78.49976,35.79761]}},{"type":"Feature","properties":{"station_name":"Greystone WW Company","fuel_type_code":"ELEC","address":"1001 Greystone Common Drive","city":"Knightdale","zip":27545},"geometry":{"type":"Point","coordinates":[-78.50498511,35.79359643]}},{"type":"Feature","properties":{"station_name":"Greystone WW Shop","fuel_type_code":"ELEC","address":"1151 Newport Common Drive","city":"Knightdale","zip":27545},"geometry":{"type":"Point","coordinates":[-78.50151162,35.79225025]}},{"type":"Feature","properties":{"station_name":"Lowes Foods - Tesla Supercharger","fuel_type_code":"ELEC","address":"3001 Widewaters Pkwy","city":"Knightdale","zip":27545},"geometry":{"type":"Point","coordinates":[-78.506036,35.795534]}},{"type":"Feature","properties":{"station_name":"Town of Knightdale","fuel_type_code":"ELEC","address":"950 Steeple Square Ct.","city":"Knightdale","zip":27545},"geometry":{"type":"Point","coordinates":[-78.488289,35.803748]}},{"type":"Feature","properties":{"station_name":"Sheetz Store #525","fuel_type_code":"E85","address":"10700 Chapel Hill Rd","city":"Morrisville","zip":27560},"geometry":{"type":"Point","coordinates":[-78.83622,35.84692]}},{"type":"Feature","properties":{"station_name":"Aviation Crossing","fuel_type_code":"ELEC","address":"4555 McCrimmon Parkway","city":"Morrisville","zip":27560},"geometry":{"type":"Point","coordinates":[-78.8127564,35.8333258]}},{"type":"Feature","properties":{"station_name":"CBRE @ Microsoft station location","fuel_type_code":"ELEC","address":"1009 Think Place","city":"Morrisville","zip":27560},"geometry":{"type":"Point","coordinates":[-78.8373174,35.8582629]}},{"type":"Feature","properties":{"station_name":"TO MORRISVILLE MAFC","fuel_type_code":"ELEC","address":"1301 Morrisville Pkwy","city":"Morrisville","zip":27560},"geometry":{"type":"Point","coordinates":[-78.840805,35.80957]}},{"type":"Feature","properties":{"station_name":"TO MORRISVILLE CSP 2","fuel_type_code":"ELEC","address":"5817 Cricket Pitch Wy","city":"Morrisville","zip":27560},"geometry":{"type":"Point","coordinates":[-78.844328,35.845626]}},{"type":"Feature","properties":{"station_name":"TO MORRISVILLE CSP 1","fuel_type_code":"ELEC","address":"5817 Cricket Pitch Way","city":"Morrisville","zip":27560},"geometry":{"type":"Point","coordinates":[-78.816059,35.830556]}},{"type":"Feature","properties":{"station_name":"PERIM PARK O-LP 3300 PARAMOUNT","fuel_type_code":"ELEC","address":"3300 Paramount Pkwy","city":"Morrisville","zip":27560},"geometry":{"type":"Point","coordinates":[-78.832137,35.852673]}},{"type":"Feature","properties":{"station_name":"Tech 11","fuel_type_code":"ELEC","address":"637 Davis Drive","city":"Morrisville","zip":27560},"geometry":{"type":"Point","coordinates":[-78.862416,35.8670101]}},{"type":"Feature","properties":{"station_name":"TO MORRISVILLE TOWN HALL 2","fuel_type_code":"ELEC","address":"100 Town Hall Dr","city":"Morrisville","zip":27560},"geometry":{"type":"Point","coordinates":[-78.828216,35.822051]}},{"type":"Feature","properties":{"station_name":"TO MORRISVILLE TOWNHALL1","fuel_type_code":"ELEC","address":"100 Town Hall Dr","city":"Morrisville","zip":27560},"geometry":{"type":"Point","coordinates":[-78.828163,35.822059]}},{"type":"Feature","properties":{"station_name":"TO MORRISVILLE MCP1","fuel_type_code":"ELEC","address":"1526 Morrisville Pkwy","city":"Morrisville","zip":27560},"geometry":{"type":"Point","coordinates":[-78.842052,35.815357]}},{"type":"Feature","properties":{"station_name":"TO MORRISVILLE MCP2","fuel_type_code":"ELEC","address":"1526 Morrisville Pkwy","city":"Morrisville","zip":27560},"geometry":{"type":"Point","coordinates":[-78.842098,35.815298]}},{"type":"Feature","properties":{"station_name":"WTCC RTP STATION 1","fuel_type_code":"ELEC","address":"10908 Chapel Hill Rd","city":"Morrisville","zip":27560},"geometry":{"type":"Point","coordinates":[-78.840048,35.853582]}},{"type":"Feature","properties":{"station_name":"WTCC RTP STATION 6","fuel_type_code":"ELEC","address":"10908 Chapel Hill Rd","city":"Morrisville","zip":27560},"geometry":{"type":"Point","coordinates":[-78.839427,35.853676]}},{"type":"Feature","properties":{"station_name":"WTCC RTP STATION 5","fuel_type_code":"ELEC","address":"10908 Chapel Hill Rd","city":"Morrisville","zip":27560},"geometry":{"type":"Point","coordinates":[-78.839646,35.85359]}},{"type":"Feature","properties":{"station_name":"WTCC RTP STATION 4","fuel_type_code":"ELEC","address":"10908 Chapel Hill Rd","city":"Morrisville","zip":27560},"geometry":{"type":"Point","coordinates":[-78.839757,35.85355]}},{"type":"Feature","properties":{"station_name":"WTCC RTP STATION 2","fuel_type_code":"ELEC","address":"10908 Chapel Hill Rd","city":"Morrisville","zip":27560},"geometry":{"type":"Point","coordinates":[-78.839885,35.853558]}},{"type":"Feature","properties":{"station_name":"WTCC RTP STATION 3","fuel_type_code":"ELEC","address":"10908 Chapel Hill Rd","city":"Morrisville","zip":27560},"geometry":{"type":"Point","coordinates":[-78.840121,35.853506]}},{"type":"Feature","properties":{"station_name":"Residences at Shiloh Crossing Manager","fuel_type_code":"ELEC","address":"3000 Dominion Ridge Circle","city":"Morrisville","zip":27560},"geometry":{"type":"Point","coordinates":[-78.84017666,35.86488824]}},{"type":"Feature","properties":{"station_name":"PERIM PARK O-LP 1600 ADA","fuel_type_code":"ELEC","address":"1600 Perimeter Park Dr","city":"Morrisville","zip":27560},"geometry":{"type":"Point","coordinates":[-78.82924,35.854107]}},{"type":"Feature","properties":{"station_name":"TO MORRISVILLE FS3","fuel_type_code":"ELEC","address":"1021 Harris Mill Road","city":"Morrisville","zip":27560},"geometry":{"type":"Point","coordinates":[-78.849573,35.84074]}},{"type":"Feature","properties":{"station_name":"City Electric Supply","fuel_type_code":"ELEC","address":"10404 Chapel Hill Rd","city":"Morrisville","zip":27560},"geometry":{"type":"Point","coordinates":[-78.8291,35.83742]}},{"type":"Feature","properties":{"station_name":"Sheetz - Tesla Supercharger","fuel_type_code":"ELEC","address":"1600 Aviation Pkwy","city":"Morrisville","zip":27560},"geometry":{"type":"Point","coordinates":[-78.795217,35.854875]}},{"type":"Feature","properties":{"station_name":"P1, P2, P3 & P4 3015 STATION 4","fuel_type_code":"ELEC","address":"3015 Carrington Mill Blvd","city":"Morrisville","zip":27560},"geometry":{"type":"Point","coordinates":[-78.835551,35.865157]}},{"type":"Feature","properties":{"station_name":"P1, P2, P3 & P4 3015 STATION 3","fuel_type_code":"ELEC","address":"3015 Carrington Mill Blvd","city":"Morrisville","zip":27560},"geometry":{"type":"Point","coordinates":[-78.835572,35.865113]}},{"type":"Feature","properties":{"station_name":"P1, P2, P3 & P4 3025 STATION 3","fuel_type_code":"ELEC","address":"3025 Carrington Mill Blvd","city":"Morrisville","zip":27560},"geometry":{"type":"Point","coordinates":[-78.83297,35.864738]}},{"type":"Feature","properties":{"station_name":"P1, P2, P3 & P4 3025 SATION 4","fuel_type_code":"ELEC","address":"3025 Carrington Mill Blvd","city":"Morrisville","zip":27560},"geometry":{"type":"Point","coordinates":[-78.832884,35.864712]}},{"type":"Feature","properties":{"station_name":"P1, P2, P3 & P4 3020 SATION 4","fuel_type_code":"ELEC","address":"3020 Carrington Mill Blvd","city":"Morrisville","zip":27560},"geometry":{"type":"Point","coordinates":[-78.833823,35.863371]}},{"type":"Feature","properties":{"station_name":"P1, P2, P3 & P4 3020 SATION 3","fuel_type_code":"ELEC","address":"3020 Carrington Mill Blvd","city":"Morrisville","zip":27560},"geometry":{"type":"Point","coordinates":[-78.833855,35.863319]}},{"type":"Feature","properties":{"station_name":"U-Haul","fuel_type_code":"LPG","address":"3001 N Capital Blvd","city":"Raleigh","zip":27604},"geometry":{"type":"Point","coordinates":[-78.593763,35.820809]}},{"type":"Feature","properties":{"station_name":"City of Raleigh - Municipal Building","fuel_type_code":"ELEC","address":"285 W Hargett St","city":"Raleigh","zip":27601},"geometry":{"type":"Point","coordinates":[-78.64347,35.778416]}},{"type":"Feature","properties":{"station_name":"City of Raleigh - Downtown","fuel_type_code":"ELEC","address":"215 W Cabarrus St","city":"Raleigh","zip":27601},"geometry":{"type":"Point","coordinates":[-78.642287,35.77435]}},{"type":"Feature","properties":{"station_name":"Marriott Hotel - Underground Deck","fuel_type_code":"ELEC","address":"1 E Lenoir St","city":"Raleigh","zip":27601},"geometry":{"type":"Point","coordinates":[-78.638502,35.772881]}},{"type":"Feature","properties":{"station_name":"City of Raleigh - Performing Arts Center Deck","fuel_type_code":"ELEC","address":"128 W South St","city":"Raleigh","zip":27601},"geometry":{"type":"Point","coordinates":[-78.641492,35.772619]}},{"type":"Feature","properties":{"station_name":"City of Raleigh - Wilmington Station Deck","fuel_type_code":"ELEC","address":"117 S Wilmington St","city":"Raleigh","zip":27601},"geometry":{"type":"Point","coordinates":[-78.638203,35.77937]}},{"type":"Feature","properties":{"station_name":"Wilkerson Nature Preserve Park","fuel_type_code":"ELEC","address":"11408 Raven Ridge Rd","city":"Raleigh","zip":27614},"geometry":{"type":"Point","coordinates":[-78.599883,35.92353]}},{"type":"Feature","properties":{"station_name":"Raleigh Municipal Building Deck","fuel_type_code":"ELEC","address":"201 W Morgan St","city":"Raleigh","zip":27601},"geometry":{"type":"Point","coordinates":[-78.641779,35.779082]}},{"type":"Feature","properties":{"station_name":"City of Raleigh - Walnut Creek Wetland Center","fuel_type_code":"ELEC","address":"950 Peterson St","city":"Raleigh","zip":27610},"geometry":{"type":"Point","coordinates":[-78.625345,35.760503]}},{"type":"Feature","properties":{"station_name":"City of Raleigh - Optimist Park and Community Center","fuel_type_code":"ELEC","address":"5910 Whittier Dr","city":"Raleigh","zip":27609},"geometry":{"type":"Point","coordinates":[-78.643641,35.862603]}},{"type":"Feature","properties":{"station_name":"City of Raleigh - Jaycee Park and Community Center","fuel_type_code":"ELEC","address":"2401 Wade Ave","city":"Raleigh","zip":27607},"geometry":{"type":"Point","coordinates":[-78.663445,35.800443]}},{"type":"Feature","properties":{"station_name":"City of Raleigh - Wilders Grove","fuel_type_code":"ELEC","address":"630 Beacon Lake Dr","city":"Raleigh","zip":27610},"geometry":{"type":"Point","coordinates":[-78.573106,35.788789]}},{"type":"Feature","properties":{"station_name":"City of Raleigh - Transit Center","fuel_type_code":"ELEC","address":"808 Bus Way","city":"Raleigh","zip":27610},"geometry":{"type":"Point","coordinates":[-78.563464,35.767483]}},{"type":"Feature","properties":{"station_name":"Northern Wake Tech Community College","fuel_type_code":"ELEC","address":"6600 Louisburg Rd","city":"Raleigh","zip":27616},"geometry":{"type":"Point","coordinates":[-78.543695,35.867552]}},{"type":"Feature","properties":{"station_name":"Wake Technical Community College","fuel_type_code":"ELEC","address":"9101 Fayetteville Rd","city":"Raleigh","zip":27603},"geometry":{"type":"Point","coordinates":[-78.706233,35.651689]}},{"type":"Feature","properties":{"station_name":"Ambiente Modern Furniture","fuel_type_code":"ELEC","address":"210 Hampton Woods Ln","city":"Raleigh","zip":27607},"geometry":{"type":"Point","coordinates":[-78.750329,35.793985]}},{"type":"Feature","properties":{"station_name":"Fred Anderson Nissan","fuel_type_code":"ELEC","address":"9225 Glenwood Ave","city":"Raleigh","zip":27617},"geometry":{"type":"Point","coordinates":[-78.760671,35.896757]}},{"type":"Feature","properties":{"station_name":"BP","fuel_type_code":"E85","address":"6712 Glenwood Ave","city":"Raleigh","zip":27612},"geometry":{"type":"Point","coordinates":[-78.70951,35.86139]}},{"type":"Feature","properties":{"station_name":"North Carolina State University - Keystone Science Center","fuel_type_code":"ELEC","address":"1791 Varsity Dr","city":"Raleigh","zip":27606},"geometry":{"type":"Point","coordinates":[-78.677792,35.774673]}},{"type":"Feature","properties":{"station_name":"U-Haul","fuel_type_code":"LPG","address":"4720 New Bern Ave","city":"Raleigh","zip":27610},"geometry":{"type":"Point","coordinates":[-78.556157,35.796841]}},{"type":"Feature","properties":{"station_name":"U-Haul","fuel_type_code":"LPG","address":"3001 Capital Blvd","city":"Raleigh","zip":27604},"geometry":{"type":"Point","coordinates":[-78.593763,35.820809]}},{"type":"Feature","properties":{"station_name":"ASBURYVILLAGE ASBURY STAT 1","fuel_type_code":"ELEC","address":"814 Handsworth Ln","city":"Raleigh","zip":27607},"geometry":{"type":"Point","coordinates":[-78.738174,35.795027]}},{"type":"Feature","properties":{"station_name":"Sheetz Store #480","fuel_type_code":"E85","address":"600 Corporate Center Dr","city":"Raleigh","zip":27607},"geometry":{"type":"Point","coordinates":[-78.73961,35.78977]}},{"type":"Feature","properties":{"station_name":"Sheetz Store #507","fuel_type_code":"E85","address":"7900 Fayetteville Rd","city":"Raleigh","zip":27603},"geometry":{"type":"Point","coordinates":[-78.69862,35.66664]}},{"type":"Feature","properties":{"station_name":"Sheetz Store #513","fuel_type_code":"E85","address":"9915 Fayetteville Rd","city":"Raleigh","zip":27603},"geometry":{"type":"Point","coordinates":[-78.714209,35.634967]}},{"type":"Feature","properties":{"station_name":"Sheetz Store #536","fuel_type_code":"E85","address":"4660 Millbrook Green Dr","city":"Raleigh","zip":27604},"geometry":{"type":"Point","coordinates":[-78.58701,35.8489]}},{"type":"Feature","properties":{"station_name":"Sheetz Store #537","fuel_type_code":"E85","address":"2408 Dixie Forest Rd","city":"Raleigh","zip":27615},"geometry":{"type":"Point","coordinates":[-78.59928,35.86289]}},{"type":"Feature","properties":{"station_name":"DEVON FOUR25 DEVON FOUR25","fuel_type_code":"ELEC","address":"425 N Boylan Ave","city":"Raleigh","zip":27603},"geometry":{"type":"Point","coordinates":[-78.649851,35.786358]}},{"type":"Feature","properties":{"station_name":"Sheetz Store #620","fuel_type_code":"E85","address":"7513 Ramble Way","city":"Raleigh","zip":27601},"geometry":{"type":"Point","coordinates":[-78.53876,35.87616]}},{"type":"Feature","properties":{"station_name":"Sheetz Store #634","fuel_type_code":"E85","address":"8101 Glenwood Ave","city":"Raleigh","zip":27612},"geometry":{"type":"Point","coordinates":[-78.72852,35.87334]}},{"type":"Feature","properties":{"station_name":"DILLON STATION STATION1","fuel_type_code":"ELEC","address":"223 S West St","city":"Raleigh","zip":27603},"geometry":{"type":"Point","coordinates":[-78.645687,35.777973]}},{"type":"Feature","properties":{"station_name":"WEINSTEIN BRIER1","fuel_type_code":"ELEC","address":"8200 Stonebrook Terrace","city":"Raleigh","zip":27617},"geometry":{"type":"Point","coordinates":[-78.787751,35.910497]}},{"type":"Feature","properties":{"station_name":"North Hills - Tesla Supercharger","fuel_type_code":"ELEC","address":"Lassiter at North Hills Ave","city":"Raleigh","zip":27609},"geometry":{"type":"Point","coordinates":[-78.643001,35.835539]}},{"type":"Feature","properties":{"station_name":"WTCC SWC STATION 3","fuel_type_code":"ELEC","address":"9101 Fayetteville Rd","city":"Raleigh","zip":27603},"geometry":{"type":"Point","coordinates":[-78.703732,35.651196]}},{"type":"Feature","properties":{"station_name":"HIGHWOODS RTP 751 CORP EV 1","fuel_type_code":"ELEC","address":"751 Corporate Center Drive","city":"Raleigh","zip":27607},"geometry":{"type":"Point","coordinates":[-78.741801,35.793618]}},{"type":"Feature","properties":{"station_name":"Aloft Raleigh - Tesla Destination","fuel_type_code":"ELEC","address":"2100 Hillsborough St","city":"Raleigh","zip":27607},"geometry":{"type":"Point","coordinates":[-78.663311,35.786773]}},{"type":"Feature","properties":{"station_name":"Marlowe Lake Boone Apartments","fuel_type_code":"ELEC","address":"1731 Tupelo Hill Lane","city":"Raleigh","zip":27607},"geometry":{"type":"Point","coordinates":[-78.689886,35.814248]}},{"type":"Feature","properties":{"station_name":"Pleasant Valley Promenade","fuel_type_code":"ELEC","address":"6204 Glenwood Ave","city":"Raleigh","zip":27612},"geometry":{"type":"Point","coordinates":[-78.70359,35.85731]}},{"type":"Feature","properties":{"station_name":"City of Raleigh - Moore Square Deck","fuel_type_code":"ELEC","address":"233 S Wilmington St","city":"Raleigh","zip":27601},"geometry":{"type":"Point","coordinates":[-78.637505,35.777463]}},{"type":"Feature","properties":{"station_name":"COREV CITY CENTER 2","fuel_type_code":"ELEC","address":"429 S Wilmington Street","city":"Raleigh","zip":27601},"geometry":{"type":"Point","coordinates":[-78.638077,35.774316]}},{"type":"Feature","properties":{"station_name":"BLOC83 TOWER 1 STATION 1","fuel_type_code":"ELEC","address":"607 W Morgan Street","city":"Raleigh","zip":27603},"geometry":{"type":"Point","coordinates":[-78.648556,35.780115]}},{"type":"Feature","properties":{"station_name":"COREV MOORE SQUARE 1","fuel_type_code":"ELEC","address":"233 S Wilmington Street","city":"Raleigh","zip":27601},"geometry":{"type":"Point","coordinates":[-78.6377,35.777156]}},{"type":"Feature","properties":{"station_name":"NC STATE CBC PARKING DEC","fuel_type_code":"ELEC","address":"William Moore Dr","city":"Raleigh","zip":27606},"geometry":{"type":"Point","coordinates":[-78.70632,35.797681]}},{"type":"Feature","properties":{"station_name":"NC STATE RESEARCH IV","fuel_type_code":"ELEC","address":"909 Capability Dr","city":"Raleigh","zip":27606},"geometry":{"type":"Point","coordinates":[-78.681099,35.772503]}},{"type":"Feature","properties":{"station_name":"NC STATE OVAL WEST DECK","fuel_type_code":"ELEC","address":"Partners Way","city":"Raleigh","zip":27606},"geometry":{"type":"Point","coordinates":[-78.67638,35.771109]}},{"type":"Feature","properties":{"station_name":"NC STATE PARTNERS II","fuel_type_code":"ELEC","address":"840 Main Campus Dr","city":"Raleigh","zip":27606},"geometry":{"type":"Point","coordinates":[-78.675918,35.775484]}},{"type":"Feature","properties":{"station_name":"NC STATE PARTNERS I","fuel_type_code":"ELEC","address":"1017 Main Campus Dr","city":"Raleigh","zip":27606},"geometry":{"type":"Point","coordinates":[-78.677132,35.77042]}},{"type":"Feature","properties":{"station_name":"NC STATE DAN ALLEN DECK1","fuel_type_code":"ELEC","address":"110 Dan Allen Dr","city":"Raleigh","zip":27607},"geometry":{"type":"Point","coordinates":[-78.674924,35.787452]}},{"type":"Feature","properties":{"station_name":"SPG ELVT BRIER CRK.","fuel_type_code":"ELEC","address":"9921 Horizon Overlook Rd","city":"Raleigh","zip":27617},"geometry":{"type":"Point","coordinates":[-78.805318,35.896455]}},{"type":"Feature","properties":{"station_name":"Park & Market","fuel_type_code":"ELEC","address":"121 St Albans Drive","city":"Raleigh","zip":27609},"geometry":{"type":"Point","coordinates":[-78.638219,35.837988]}},{"type":"Feature","properties":{"station_name":"3800 GLENWOOD STATION 1","fuel_type_code":"ELEC","address":"3701 National Dr PARKING DECK","city":"Raleigh","zip":27612},"geometry":{"type":"Point","coordinates":[-78.66663,35.831954]}},{"type":"Feature","properties":{"station_name":"401 Oberlin Apartments","fuel_type_code":"ELEC","address":"401 Oberlin Road","city":"Raleigh","zip":27605},"geometry":{"type":"Point","coordinates":[-78.663673,35.790001]}},{"type":"Feature","properties":{"station_name":"MINI OF RALEIGH CUST SERVICE","fuel_type_code":"ELEC","address":"5600 Capital Blvd","city":"Raleigh","zip":27616},"geometry":{"type":"Point","coordinates":[-78.579836,35.86181]}},{"type":"Feature","properties":{"station_name":"Hyatt Place - Raleigh / Cary","fuel_type_code":"ELEC","address":"710 Corporate Center Dr","city":"Raleigh","zip":27607},"geometry":{"type":"Point","coordinates":[-78.738308,35.791673]}},{"type":"Feature","properties":{"station_name":"UNC Rex Healthcare Parking Deck","fuel_type_code":"ELEC","address":"4420 Lake Boone Trail","city":"Raleigh","zip":27607},"geometry":{"type":"Point","coordinates":[-78.70409,35.816952]}},{"type":"Feature","properties":{"station_name":"UNC Rex Healthcare Heart and Vascular Parking Deck","fuel_type_code":"ELEC","address":"4420 Lake Boone Trail","city":"Raleigh","zip":27607},"geometry":{"type":"Point","coordinates":[-78.702876,35.81987]}},{"type":"Feature","properties":{"station_name":"Hilton Raleigh North Hills","fuel_type_code":"ELEC","address":"3415 Wake Forest Rd","city":"Raleigh","zip":27609},"geometry":{"type":"Point","coordinates":[-78.619724,35.829812]}},{"type":"Feature","properties":{"station_name":"222 GLENWOOD STATION #1","fuel_type_code":"ELEC","address":"222 Glenwood Ave","city":"Raleigh","zip":27603},"geometry":{"type":"Point","coordinates":[-78.647169,35.783534]}},{"type":"Feature","properties":{"station_name":"Aloft Raleigh Durham Airport/Brier Creek - Tesla Destination","fuel_type_code":"ELEC","address":"10020 Sellona St","city":"Raleigh","zip":27617},"geometry":{"type":"Point","coordinates":[-78.807561,35.895744]}},{"type":"Feature","properties":{"station_name":"North Hills","fuel_type_code":"ELEC","address":"4351 The Cir at N Hills St","city":"Raleigh","zip":27609},"geometry":{"type":"Point","coordinates":[-78.642,35.83788]}},{"type":"Feature","properties":{"station_name":"Midtown Plaza","fuel_type_code":"ELEC","address":"305 Church at North Hills St","city":"Raleigh","zip":27609},"geometry":{"type":"Point","coordinates":[-78.635398,35.834809]}},{"type":"Feature","properties":{"station_name":"DILLON STATION STATION2","fuel_type_code":"ELEC","address":"223 S West St","city":"Raleigh","zip":27603},"geometry":{"type":"Point","coordinates":[-78.645676,35.777964]}},{"type":"Feature","properties":{"station_name":"HIGHWOODS RTP 751 CORP EV 2","fuel_type_code":"ELEC","address":"751 Corporate Center Drive","city":"Raleigh","zip":27607},"geometry":{"type":"Point","coordinates":[-78.742278,35.793383]}},{"type":"Feature","properties":{"station_name":"PARK CENTRAL PC STATION 1","fuel_type_code":"ELEC","address":"200 Park at N Hills St","city":"Raleigh","zip":27609},"geometry":{"type":"Point","coordinates":[-78.637277,35.835779]}},{"type":"Feature","properties":{"station_name":"NC STATE PARTNERS WY DCK","fuel_type_code":"ELEC","address":"Partners Way","city":"Raleigh","zip":27606},"geometry":{"type":"Point","coordinates":[-78.674447,35.773777]}},{"type":"Feature","properties":{"station_name":"3800 GLENWOOD STATION 3","fuel_type_code":"ELEC","address":"3701 National Dr PARKING DECK","city":"Raleigh","zip":27612},"geometry":{"type":"Point","coordinates":[-78.66662,35.831995]}},{"type":"Feature","properties":{"station_name":"3800 GLENWOOD STATION 2","fuel_type_code":"ELEC","address":"3701 National Dr PARKING DECK","city":"Raleigh","zip":27612},"geometry":{"type":"Point","coordinates":[-78.666666,35.83196]}},{"type":"Feature","properties":{"station_name":"3800 GLENWOOD STATION 4","fuel_type_code":"ELEC","address":"3701 National Dr PARKING DECK","city":"Raleigh","zip":27612},"geometry":{"type":"Point","coordinates":[-78.666625,35.83197]}},{"type":"Feature","properties":{"station_name":"LENOVO CENTER LENOVO 36,37","fuel_type_code":"ELEC","address":"1400 Edwards Mill Rd","city":"Raleigh","zip":27607},"geometry":{"type":"Point","coordinates":[-78.72239,35.802486]}},{"type":"Feature","properties":{"station_name":"LENOVO CENTER LENOVO 34,35","fuel_type_code":"ELEC","address":"1400 Edwards Mill Rd","city":"Raleigh","zip":27607},"geometry":{"type":"Point","coordinates":[-78.72236,35.802444]}},{"type":"Feature","properties":{"station_name":"LENOVO CENTER LENOVO 32,33","fuel_type_code":"ELEC","address":"1400 Edwards Mill Rd","city":"Raleigh","zip":27607},"geometry":{"type":"Point","coordinates":[-78.72232,35.802406]}},{"type":"Feature","properties":{"station_name":"Sheetz Store #669","fuel_type_code":"E85","address":"13401 Falls of Neuse Rd","city":"Raleigh","zip":27587},"geometry":{"type":"Point","coordinates":[-78.55928021,35.94335243]}},{"type":"Feature","properties":{"station_name":"MB RALEIGH CAP CORNER","fuel_type_code":"ELEC","address":"5607 Capital Blvd","city":"Raleigh","zip":27616},"geometry":{"type":"Point","coordinates":[-78.582751,35.864118]}},{"type":"Feature","properties":{"station_name":"ADVANCE AUTO STATION 2","fuel_type_code":"ELEC","address":"4200 Six Forks Rd","city":"Raleigh","zip":27609},"geometry":{"type":"Point","coordinates":[-78.639554,35.836069]}},{"type":"Feature","properties":{"station_name":"Camden Carolinian","fuel_type_code":"ELEC","address":"2600 Glenwood Ave","city":"Raleigh","zip":27608},"geometry":{"type":"Point","coordinates":[-78.659529,35.81717]}},{"type":"Feature","properties":{"station_name":"Sojourn Lake Boone - Building 2","fuel_type_code":"ELEC","address":"2231 Housecreek Trail","city":"Raleigh","zip":27607},"geometry":{"type":"Point","coordinates":[-78.692489,35.810628]}},{"type":"Feature","properties":{"station_name":"AG SCI CENTER STATION 1","fuel_type_code":"ELEC","address":"4400 Reedy Creek Rd","city":"Raleigh","zip":27607},"geometry":{"type":"Point","coordinates":[-78.713308,35.8147]}},{"type":"Feature","properties":{"station_name":"Sojourn Glenwood Place","fuel_type_code":"ELEC","address":"3710 Exchange Glenwood Place Ste.1000 Raleigh NC 27612","city":"Raleigh","zip":27612},"geometry":{"type":"Point","coordinates":[-78.6649049,35.8324264]}},{"type":"Feature","properties":{"station_name":"DILLON WEST ST 1","fuel_type_code":"ELEC","address":"120 S West St","city":"Raleigh","zip":27603},"geometry":{"type":"Point","coordinates":[-78.646523,35.778989]}},{"type":"Feature","properties":{"station_name":"DILLON WEST ST 2","fuel_type_code":"ELEC","address":"120 S West St","city":"Raleigh","zip":27603},"geometry":{"type":"Point","coordinates":[-78.646483,35.778965]}},{"type":"Feature","properties":{"station_name":"Sheetz Store #669","fuel_type_code":"E85","address":"13401 Falls of Neuse Rd","city":"Raleigh","zip":27614},"geometry":{"type":"Point","coordinates":[-78.55895246,35.94355741]}},{"type":"Feature","properties":{"station_name":"VINE KANE 1","fuel_type_code":"ELEC","address":"4204 Six Forks Rd","city":"Raleigh","zip":27609},"geometry":{"type":"Point","coordinates":[-78.639445,35.836163]}},{"type":"Feature","properties":{"station_name":"CROSSPOINTE II STATION1","fuel_type_code":"ELEC","address":"2840 Plaza Pl","city":"Raleigh","zip":27612},"geometry":{"type":"Point","coordinates":[-78.683177,35.857493]}},{"type":"Feature","properties":{"station_name":"Cortland Midtown East","fuel_type_code":"ELEC","address":"2601 Noblewood Circle","city":"Raleigh","zip":27604},"geometry":{"type":"Point","coordinates":[-78.611464,35.816201]}},{"type":"Feature","properties":{"station_name":"NORTH HILLS NORTH HILLS 1","fuel_type_code":"ELEC","address":"4290 Six Forks Rd","city":"Raleigh","zip":27609},"geometry":{"type":"Point","coordinates":[-78.642006,35.83785]}},{"type":"Feature","properties":{"station_name":"Sheetz","fuel_type_code":"ELEC","address":"600 Corporate Center Dr","city":"Raleigh","zip":27607},"geometry":{"type":"Point","coordinates":[-78.739027,35.789742]}},{"type":"Feature","properties":{"station_name":"Lowes Foods - Brier Creek","fuel_type_code":"ELEC","address":"8100 Brier Creek Pkwy","city":"Raleigh","zip":27617},"geometry":{"type":"Point","coordinates":[-78.785178,35.910055]}},{"type":"Feature","properties":{"station_name":"Ridgewood Shopping Center","fuel_type_code":"ELEC","address":"3540 Wade Ave","city":"Raleigh","zip":27607},"geometry":{"type":"Point","coordinates":[-78.684163,35.801815]}},{"type":"Feature","properties":{"station_name":"WTCC SWC STATION 6","fuel_type_code":"ELEC","address":"9101 Fayetteville Road","city":"Raleigh","zip":27603},"geometry":{"type":"Point","coordinates":[-78.699845,35.650384]}},{"type":"Feature","properties":{"station_name":"DILLON STATION EASTERN 4TH LVL","fuel_type_code":"ELEC","address":"4200 Six Forks Rd","city":"Raleigh","zip":27609},"geometry":{"type":"Point","coordinates":[-78.639451,35.836024]}},{"type":"Feature","properties":{"station_name":"Church at North Hill Street Raleigh, NC 27609","fuel_type_code":"ELEC","address":"321 Church St at North Hill Street","city":"Raleigh","zip":27609},"geometry":{"type":"Point","coordinates":[-78.634723,35.834835]}},{"type":"Feature","properties":{"station_name":"616 PARKING GARAGE","fuel_type_code":"ELEC","address":"616 Oberlin Rd","city":"Raleigh","zip":27605},"geometry":{"type":"Point","coordinates":[-78.661904,35.793191]}},{"type":"Feature","properties":{"station_name":"ADVANCE AUTO STATION 3","fuel_type_code":"ELEC","address":"4200 Six Forks Rd","city":"Raleigh","zip":27609},"geometry":{"type":"Point","coordinates":[-78.639586,35.836077]}},{"type":"Feature","properties":{"station_name":"ADVANCE AUTO STATION 1","fuel_type_code":"ELEC","address":"4200 Six Forks Rd","city":"Raleigh","zip":27609},"geometry":{"type":"Point","coordinates":[-78.639586,35.836121]}},{"type":"Feature","properties":{"station_name":"Shoppes at Garner","fuel_type_code":"ELEC","address":"4500 Fayetteville Rd","city":"Raleigh","zip":27603},"geometry":{"type":"Point","coordinates":[-78.657831,35.719709]}},{"type":"Feature","properties":{"station_name":"540 TECH CENTER 4912 LEFT","fuel_type_code":"ELEC","address":"4912 Green Rd","city":"Raleigh","zip":27616},"geometry":{"type":"Point","coordinates":[-78.585734,35.853311]}},{"type":"Feature","properties":{"station_name":"540 TECH CENTER 4912 RIGHT","fuel_type_code":"ELEC","address":"4912 Green Rd","city":"Raleigh","zip":27616},"geometry":{"type":"Point","coordinates":[-78.58576,35.85347]}},{"type":"Feature","properties":{"station_name":"SkyHouse - Raleigh","fuel_type_code":"ELEC","address":"308 S Blount St.","city":"Raleigh","zip":27601},"geometry":{"type":"Point","coordinates":[-78.637054,35.776619]}},{"type":"Feature","properties":{"station_name":"Westchase II","fuel_type_code":"ELEC","address":"4000 Westchase Boulevard","city":"Raleigh","zip":27607},"geometry":{"type":"Point","coordinates":[-78.7081552,35.8025261]}},{"type":"Feature","properties":{"station_name":"Westchase III","fuel_type_code":"ELEC","address":"4011 Westchase Boulevard","city":"Raleigh","zip":27607},"geometry":{"type":"Point","coordinates":[-78.7079683,35.8013304]}},{"type":"Feature","properties":{"station_name":"Westchase I","fuel_type_code":"ELEC","address":"4020 Westchase Boulevard","city":"Raleigh","zip":27607},"geometry":{"type":"Point","coordinates":[-78.709702,35.8031876]}},{"type":"Feature","properties":{"station_name":"WAKE COUNTY WAKECOPUBDECK","fuel_type_code":"ELEC","address":"216 W Cabbarus st","city":"Raleigh","zip":27601},"geometry":{"type":"Point","coordinates":[-78.642611,35.774974]}},{"type":"Feature","properties":{"station_name":"Home2 Suites by Hilton Raleigh State Arena","fuel_type_code":"ELEC","address":"6825 Chapel Hill Road","city":"Raleigh","zip":27607},"geometry":{"type":"Point","coordinates":[-78.742767,35.790407]}},{"type":"Feature","properties":{"station_name":"LEITH TOYOTA OUTSIDE PARKING","fuel_type_code":"ELEC","address":"8005 Capital Blvd","city":"Raleigh","zip":27616},"geometry":{"type":"Point","coordinates":[-78.563736,35.890312]}},{"type":"Feature","properties":{"station_name":"FAIRVIEW ROW FAIRVIEW ROW 1","fuel_type_code":"ELEC","address":"2019 Fairview Rd","city":"Raleigh","zip":27608},"geometry":{"type":"Point","coordinates":[-78.647938,35.804755]}},{"type":"Feature","properties":{"station_name":"NORTH HILLS BOA 3","fuel_type_code":"ELEC","address":"4242 Six Forks Rd","city":"Raleigh","zip":27609},"geometry":{"type":"Point","coordinates":[-78.64068,35.83798]}},{"type":"Feature","properties":{"station_name":"NORTH HILLS BOA 4","fuel_type_code":"ELEC","address":"4208 Six Forks Rd","city":"Raleigh","zip":27609},"geometry":{"type":"Point","coordinates":[-78.639915,35.837049]}},{"type":"Feature","properties":{"station_name":"NORTH HILLS NHX1","fuel_type_code":"ELEC","address":"4158 The Cir At N Hills St","city":"Raleigh","zip":27609},"geometry":{"type":"Point","coordinates":[-78.643028,35.83569]}},{"type":"Feature","properties":{"station_name":"NORTH HILLS NHX3","fuel_type_code":"ELEC","address":"4158 The Cir At N Hills St","city":"Raleigh","zip":27609},"geometry":{"type":"Point","coordinates":[-78.642961,35.835783]}},{"type":"Feature","properties":{"station_name":"NORTH HILLS NHX2","fuel_type_code":"ELEC","address":"4158 The Cir At N Hills St","city":"Raleigh","zip":27609},"geometry":{"type":"Point","coordinates":[-78.642996,35.835744]}},{"type":"Feature","properties":{"station_name":"NORTH HILLS NHX4","fuel_type_code":"ELEC","address":"4158 The Cir At N Hills St","city":"Raleigh","zip":27609},"geometry":{"type":"Point","coordinates":[-78.642932,35.835807]}},{"type":"Feature","properties":{"station_name":"FAT CTS4000","fuel_type_code":"ELEC","address":"9101 Glenwood Ave","city":"Raleigh","zip":27617},"geometry":{"type":"Point","coordinates":[-78.756907,35.893241]}},{"type":"Feature","properties":{"station_name":"THE TOWER CNH STATION 1","fuel_type_code":"ELEC","address":"320 St Albans Dr","city":"Raleigh","zip":27609},"geometry":{"type":"Point","coordinates":[-78.634388,35.836098]}},{"type":"Feature","properties":{"station_name":"THE TOWER CNH STATION 2","fuel_type_code":"ELEC","address":"320 St Albans Dr","city":"Raleigh","zip":27609},"geometry":{"type":"Point","coordinates":[-78.634366,35.836209]}},{"type":"Feature","properties":{"station_name":"THE TOWER CNH STATION 6","fuel_type_code":"ELEC","address":"320 St Albans Dr","city":"Raleigh","zip":27609},"geometry":{"type":"Point","coordinates":[-78.634377,35.836137]}},{"type":"Feature","properties":{"station_name":"THE TOWER CNH STATION 4","fuel_type_code":"ELEC","address":"4030 Cardinal at N Hills St","city":"Raleigh","zip":27609},"geometry":{"type":"Point","coordinates":[-78.634878,35.836009]}},{"type":"Feature","properties":{"station_name":"THE TOWER CNH STATION 3","fuel_type_code":"ELEC","address":"320 St Albans Dr","city":"Raleigh","zip":27609},"geometry":{"type":"Point","coordinates":[-78.634366,35.836059]}},{"type":"Feature","properties":{"station_name":"Brier Creek III","fuel_type_code":"ELEC","address":"8041 Arco Corporate Dr","city":"Raleigh","zip":27617},"geometry":{"type":"Point","coordinates":[-78.77828,35.905546]}},{"type":"Feature","properties":{"station_name":"Board of Nursing","fuel_type_code":"ELEC","address":"4516 Lake Boone Trail","city":"Raleigh","zip":27607},"geometry":{"type":"Point","coordinates":[-78.7078699,35.8169173]}},{"type":"Feature","properties":{"station_name":"The NinteyNine Clubhouse","fuel_type_code":"ELEC","address":"701 Vickers Way","city":"Raleigh","zip":27603},"geometry":{"type":"Point","coordinates":[-78.65638179,35.7332988]}},{"type":"Feature","properties":{"station_name":"4401 Lakerim Ave","fuel_type_code":"ELEC","address":"4401 Lakerim Avenue","city":"Raleigh","zip":27612},"geometry":{"type":"Point","coordinates":[-78.6905027,35.8365411]}},{"type":"Feature","properties":{"station_name":"The Junction","fuel_type_code":"ELEC","address":"1501 Sunrise Avenue","city":"Raleigh","zip":27608},"geometry":{"type":"Point","coordinates":[-78.636107,35.8017309]}},{"type":"Feature","properties":{"station_name":"Residences parking garage","fuel_type_code":"ELEC","address":"3711 Exchange Glenwood Place","city":"Raleigh","zip":27612},"geometry":{"type":"Point","coordinates":[-78.6658964,35.8326996]}},{"type":"Feature","properties":{"station_name":"Leith Acura Raleigh","fuel_type_code":"ELEC","address":"2300 Capital Summit Court","city":"Raleigh","zip":27616},"geometry":{"type":"Point","coordinates":[-78.56593065,35.88867092]}},{"type":"Feature","properties":{"station_name":"Forge at Raleigh Iron Works","fuel_type_code":"ELEC","address":"2221 Iron Works Drive","city":"Raleigh","zip":27604},"geometry":{"type":"Point","coordinates":[-78.61958023,35.80940616]}},{"type":"Feature","properties":{"station_name":"Parking Garage Floor 2-5","fuel_type_code":"ELEC","address":"510 North Wilmington Street","city":"Raleigh","zip":27604},"geometry":{"type":"Point","coordinates":[-78.63723936,35.78713385]}},{"type":"Feature","properties":{"station_name":"Parking Garage Floor 1","fuel_type_code":"ELEC","address":"510 North Wilmington St.","city":"Raleigh","zip":27604},"geometry":{"type":"Point","coordinates":[-78.63723936,35.78713385]}},{"type":"Feature","properties":{"station_name":"NORTH HILLS NHX5","fuel_type_code":"ELEC","address":"4158 The Cir At N Hills St","city":"Raleigh","zip":27609},"geometry":{"type":"Point","coordinates":[-78.64291,35.835844]}},{"type":"Feature","properties":{"station_name":"WTCC PHSC STATION 1","fuel_type_code":"ELEC","address":"100 Sunnybrook Rd","city":"Raleigh","zip":27610},"geometry":{"type":"Point","coordinates":[-78.58355,35.782333]}},{"type":"Feature","properties":{"station_name":"WTCC PHSC STATION 2","fuel_type_code":"ELEC","address":"100 Sunnybrook Rd","city":"Raleigh","zip":27610},"geometry":{"type":"Point","coordinates":[-78.583547,35.782333]}},{"type":"Feature","properties":{"station_name":"WTCC SWC STATION 4","fuel_type_code":"ELEC","address":"9101 Fayetteville Rd","city":"Raleigh","zip":27603},"geometry":{"type":"Point","coordinates":[-78.705875,35.648822]}},{"type":"Feature","properties":{"station_name":"WTCC SWC STATION 5","fuel_type_code":"ELEC","address":"9101 Fayetteville Rd","city":"Raleigh","zip":27603},"geometry":{"type":"Point","coordinates":[-78.705562,35.649029]}},{"type":"Feature","properties":{"station_name":"Captrust Tower","fuel_type_code":"ELEC","address":"4208 Six Forks Rd","city":"Raleigh","zip":27609},"geometry":{"type":"Point","coordinates":[-78.640051,35.837015]}},{"type":"Feature","properties":{"station_name":"The Greens at Centennial Campus","fuel_type_code":"ELEC","address":"320 The Greens Circle","city":"Raleigh","zip":27606},"geometry":{"type":"Point","coordinates":[-78.67366864,35.76484795]}},{"type":"Feature","properties":{"station_name":"PLATFORM1 STATION2","fuel_type_code":"ELEC","address":"600 W Cabarrus St","city":"Raleigh","zip":27603},"geometry":{"type":"Point","coordinates":[-78.648079,35.775411]}},{"type":"Feature","properties":{"station_name":"PLATFORM1 STATION1","fuel_type_code":"ELEC","address":"600 W Cabarrus St","city":"Raleigh","zip":27603},"geometry":{"type":"Point","coordinates":[-78.648079,35.775405]}},{"type":"Feature","properties":{"station_name":"PLATFORM1 STATION3","fuel_type_code":"ELEC","address":"600 W Cabarrus St","city":"Raleigh","zip":27603},"geometry":{"type":"Point","coordinates":[-78.648082,35.775403]}},{"type":"Feature","properties":{"station_name":"Vintage Raleigh West","fuel_type_code":"ELEC","address":"951 Corporate Center Dr.","city":"Raleigh","zip":27607},"geometry":{"type":"Point","coordinates":[-78.740123,35.79777]}},{"type":"Feature","properties":{"station_name":"Market at Colonnade Center","fuel_type_code":"ELEC","address":"8710 Six Forks Rd.","city":"Raleigh","zip":27615},"geometry":{"type":"Point","coordinates":[-78.64985,35.89941]}},{"type":"Feature","properties":{"station_name":"814 Dixie Trail, Raleigh, NC 27607","fuel_type_code":"ELEC","address":"814 Dixie Trail","city":"Raleigh","zip":27607},"geometry":{"type":"Point","coordinates":[-78.675743,35.800511]}},{"type":"Feature","properties":{"station_name":"301H P3","fuel_type_code":"ELEC","address":"305 Hillsborough St","city":"Raleigh","zip":27601},"geometry":{"type":"Point","coordinates":[-78.64411,35.780236]}},{"type":"Feature","properties":{"station_name":"NC STATE COLISEUM DECK 1","fuel_type_code":"ELEC","address":"2452 Cates Ave","city":"Raleigh","zip":27606},"geometry":{"type":"Point","coordinates":[-78.667925,35.782187]}},{"type":"Feature","properties":{"station_name":"1535 Caraleigh Mills","fuel_type_code":"ELEC","address":"1535 Caraleigh Mills Ct.","city":"Raleigh","zip":27603},"geometry":{"type":"Point","coordinates":[-78.653419,35.759877]}},{"type":"Feature","properties":{"station_name":"Skyhouse Raleigh LLC","fuel_type_code":"ELEC","address":"308 S Blunt St","city":"Raleigh","zip":27601},"geometry":{"type":"Point","coordinates":[-78.636839,35.776951]}},{"type":"Feature","properties":{"station_name":"TA Allister North Hills LLC","fuel_type_code":"ELEC","address":"441 Allister Dr","city":"Raleigh","zip":27609},"geometry":{"type":"Point","coordinates":[-78.63903,35.83328]}},{"type":"Feature","properties":{"station_name":"3700 Glenwood","fuel_type_code":"ELEC","address":"3700 Glenwood Avenue","city":"Raleigh","zip":27612},"geometry":{"type":"Point","coordinates":[-78.665985,35.830608]}},{"type":"Feature","properties":{"station_name":"CVS Living","fuel_type_code":"ELEC","address":"7901 TW Alexander Dr","city":"Raleigh","zip":27617},"geometry":{"type":"Point","coordinates":[-78.783307,35.918821]}},{"type":"Feature","properties":{"station_name":"1000 SOCIAL LEVEL 2 WEST","fuel_type_code":"ELEC","address":"1000 Social St","city":"Raleigh","zip":27609},"geometry":{"type":"Point","coordinates":[-78.623597,35.830229]}},{"type":"Feature","properties":{"station_name":"1000 SOCIAL LEVEL 2 EAST","fuel_type_code":"ELEC","address":"1000 Social St","city":"Raleigh","zip":27609},"geometry":{"type":"Point","coordinates":[-78.623725,35.830228]}},{"type":"Feature","properties":{"station_name":"1000 SOCIAL LEVEL 3 WEST","fuel_type_code":"ELEC","address":"1000 Social St","city":"Raleigh","zip":27609},"geometry":{"type":"Point","coordinates":[-78.623793,35.830237]}},{"type":"Feature","properties":{"station_name":"1000 SOCIAL LEVEL 3 EAST","fuel_type_code":"ELEC","address":"1000 Social St","city":"Raleigh","zip":27609},"geometry":{"type":"Point","coordinates":[-78.623884,35.830214]}},{"type":"Feature","properties":{"station_name":"1000 SOCIAL LEVEL 4 WEST","fuel_type_code":"ELEC","address":"1000 Social St","city":"Raleigh","zip":27609},"geometry":{"type":"Point","coordinates":[-78.623994,35.830227]}},{"type":"Feature","properties":{"station_name":"1000 SOCIAL LEVEL 4 EAST","fuel_type_code":"ELEC","address":"1000 Social St","city":"Raleigh","zip":27609},"geometry":{"type":"Point","coordinates":[-78.624082,35.830255]}},{"type":"Feature","properties":{"station_name":"1000 SOCIAL LEVEL 5 WEST","fuel_type_code":"ELEC","address":"1000 Social St","city":"Raleigh","zip":27609},"geometry":{"type":"Point","coordinates":[-78.62392,35.83054]}},{"type":"Feature","properties":{"station_name":"1000 SOCIAL LEVEL 5 EAST","fuel_type_code":"ELEC","address":"1000 Social St","city":"Raleigh","zip":27609},"geometry":{"type":"Point","coordinates":[-78.623762,35.829998]}},{"type":"Feature","properties":{"station_name":"MASTER ACCOUNT STATION 1","fuel_type_code":"ELEC","address":"1425 Promise Beacon Cir","city":"Raleigh","zip":27610},"geometry":{"type":"Point","coordinates":[-78.614935,35.7593]}},{"type":"Feature","properties":{"station_name":"MASTER ACCOUNT STATION 3","fuel_type_code":"ELEC","address":"1405 Promise Beacon Cir","city":"Raleigh","zip":27610},"geometry":{"type":"Point","coordinates":[-78.614156,35.759929]}},{"type":"Feature","properties":{"station_name":"MASTER ACCOUNT STATION 2","fuel_type_code":"ELEC","address":"1440 Rock Quarry Rd","city":"Raleigh","zip":27610},"geometry":{"type":"Point","coordinates":[-78.615516,35.758852]}},{"type":"Feature","properties":{"station_name":"MIRA GARAGE 2-FLR NW RAMP","fuel_type_code":"ELEC","address":"121 Kindley Street","city":"Raleigh","zip":27601},"geometry":{"type":"Point","coordinates":[-78.642123,35.769975]}},{"type":"Feature","properties":{"station_name":"THE PIEDMONT BLDG 2","fuel_type_code":"ELEC","address":"6120 Piedmont Ridge Cir","city":"Raleigh","zip":27616},"geometry":{"type":"Point","coordinates":[-78.570737,35.868853]}},{"type":"Feature","properties":{"station_name":"THE PIEDMONT BLDG 4","fuel_type_code":"ELEC","address":"6111 Piedmont ridge circle","city":"Raleigh","zip":27616},"geometry":{"type":"Point","coordinates":[-78.570434,35.868222]}},{"type":"Feature","properties":{"station_name":"THE PIEDMONT BLDG 1","fuel_type_code":"ELEC","address":"6100 Piedmont Ridge Cir","city":"Raleigh","zip":27616},"geometry":{"type":"Point","coordinates":[-78.570731,35.868891]}},{"type":"Feature","properties":{"station_name":"MIRA GARAGE 2-FLR SW RAMP","fuel_type_code":"ELEC","address":"121 Kindley Street","city":"Raleigh","zip":27601},"geometry":{"type":"Point","coordinates":[-78.642285,35.769897]}},{"type":"Feature","properties":{"station_name":"PLATFORM1 STATION4","fuel_type_code":"ELEC","address":"600 West Cabarrus Street","city":"Raleigh","zip":27603},"geometry":{"type":"Point","coordinates":[-78.647872,35.775634]}},{"type":"Feature","properties":{"station_name":"Ford Charge - Capital Ford","fuel_type_code":"ELEC","address":"4900 Capital Blvd","city":"Raleigh","zip":27616},"geometry":{"type":"Point","coordinates":[-78.58004465,35.8524847]}},{"type":"Feature","properties":{"station_name":"Home2 Suites by Hilton Raleigh North I-540 - Tesla Destination","fuel_type_code":"ELEC","address":"3951  Sumner Blvd","city":"Raleigh","zip":27616},"geometry":{"type":"Point","coordinates":[-78.573049,35.863945]}},{"type":"Feature","properties":{"station_name":"Raleigh Exchange Apartment","fuel_type_code":"ELEC","address":"5901 Triangle Oaks Drive","city":"Raleigh","zip":27616},"geometry":{"type":"Point","coordinates":[-78.56961873,35.86324082]}},{"type":"Feature","properties":{"station_name":"TOWN TRIANGLE AFPQO000000MDAT","fuel_type_code":"ELEC","address":"7801 Cheaha Dr","city":"Raleigh","zip":27616},"geometry":{"type":"Point","coordinates":[-78.568334,35.871738]}},{"type":"Feature","properties":{"station_name":"TOWN TRIANGLE AFPQO000000MDAR","fuel_type_code":"ELEC","address":"6350 Triangle Town Blvd","city":"Raleigh","zip":27616},"geometry":{"type":"Point","coordinates":[-78.566217,35.871506]}},{"type":"Feature","properties":{"station_name":"TOWN TRIANGLE AFPQO000000MDAS","fuel_type_code":"ELEC","address":"7921 Le Conte Ln","city":"Raleigh","zip":27616},"geometry":{"type":"Point","coordinates":[-78.565122,35.871996]}},{"type":"Feature","properties":{"station_name":"TOWN TRIANGLE AFPQO000000MDAU","fuel_type_code":"ELEC","address":"7811 Cheaha Dr","city":"Raleigh","zip":27616},"geometry":{"type":"Point","coordinates":[-78.567749,35.872041]}},{"type":"Feature","properties":{"station_name":"NC STATE DAN ALLEN DECK3","fuel_type_code":"ELEC","address":"110 Dan Allen Dr","city":"Raleigh","zip":27607},"geometry":{"type":"Point","coordinates":[-78.674875,35.7876]}},{"type":"Feature","properties":{"station_name":"NC STATE DAN ALLEN DECK2","fuel_type_code":"ELEC","address":"110 Dan Allen Dr","city":"Raleigh","zip":27607},"geometry":{"type":"Point","coordinates":[-78.674916,35.787515]}},{"type":"Feature","properties":{"station_name":"NC STATE COLISEUM DECK 5","fuel_type_code":"ELEC","address":"2452 Cates Ave","city":"Raleigh","zip":27606},"geometry":{"type":"Point","coordinates":[-78.667799,35.782006]}},{"type":"Feature","properties":{"station_name":"NC STATE COLISEUM DECK 4","fuel_type_code":"ELEC","address":"2452 Cates Ave","city":"Raleigh","zip":27606},"geometry":{"type":"Point","coordinates":[-78.667777,35.782045]}},{"type":"Feature","properties":{"station_name":"NC STATE COLISEUM DECK 2","fuel_type_code":"ELEC","address":"2452 Cates Ave","city":"Raleigh","zip":27606},"geometry":{"type":"Point","coordinates":[-78.667985,35.782206]}},{"type":"Feature","properties":{"station_name":"NC STATE COLISEUM DECK 3","fuel_type_code":"ELEC","address":"2452 Cates Ave","city":"Raleigh","zip":27606},"geometry":{"type":"Point","coordinates":[-78.667754,35.782087]}},{"type":"Feature","properties":{"station_name":"Crossroads Nissan - Wake Forest","fuel_type_code":"ELEC","address":"11120 Capital Blvd","city":"Wake Forest","zip":27587},"geometry":{"type":"Point","coordinates":[-78.53696,35.94869]}},{"type":"Feature","properties":{"station_name":"Sheetz Store #505","fuel_type_code":"E85","address":"1895 S Franklin St","city":"Wake Forest","zip":27587},"geometry":{"type":"Point","coordinates":[-78.50857,35.95019]}},{"type":"Feature","properties":{"station_name":"WF EV STATIONS S WHITE EV","fuel_type_code":"ELEC","address":"150 S White St","city":"Wake Forest","zip":27587},"geometry":{"type":"Point","coordinates":[-78.510054,35.978194]}},{"type":"Feature","properties":{"station_name":"Candlewood Suites Wake Forest Raleigh Area - Tesla Destination","fuel_type_code":"ELEC","address":"12050 Retail Dr","city":"Wake Forest","zip":27587},"geometry":{"type":"Point","coordinates":[-78.542788,35.976409]}},{"type":"Feature","properties":{"station_name":"WF EV STATIONS TOWN HALL EV2","fuel_type_code":"ELEC","address":"301 Brooks St","city":"Wake Forest","zip":27587},"geometry":{"type":"Point","coordinates":[-78.508178,35.976385]}},{"type":"Feature","properties":{"station_name":"WF EV STATIONS TOWN HALL EV1","fuel_type_code":"ELEC","address":"317 Brooks St","city":"Wake Forest","zip":27587},"geometry":{"type":"Point","coordinates":[-78.508776,35.97614]}},{"type":"Feature","properties":{"station_name":"Walmart 5254 - Wake Forest, NC","fuel_type_code":"ELEC","address":"2114 S. Main St.","city":"Wake Forest","zip":27587},"geometry":{"type":"Point","coordinates":[-78.53398,35.95154]}},{"type":"Feature","properties":{"station_name":"WAKE EMC SUGAR GAP","fuel_type_code":"ELEC","address":"916 Sugar Gap Road","city":"Wake Forest","zip":27587},"geometry":{"type":"Point","coordinates":[-78.504162,35.947437]}},{"type":"Feature","properties":{"station_name":"WESTGATEKIA STATION 1","fuel_type_code":"ELEC","address":"10956 Star Rd","city":"Wake Forest","zip":27587},"geometry":{"type":"Point","coordinates":[-78.536713,35.945528]}},{"type":"Feature","properties":{"station_name":"Wegmans 11051 Ligon Mill Road DCFC","fuel_type_code":"ELEC","address":"11051 Ligon Mill Road","city":"Wake Forest","zip":27587},"geometry":{"type":"Point","coordinates":[-78.533109,35.964174]}},{"type":"Feature","properties":{"station_name":"Legacy Wake Forest","fuel_type_code":"ELEC","address":"1421 Legacy Falls Dr","city":"Wake Forest","zip":27587},"geometry":{"type":"Point","coordinates":[-78.555393,35.9727132]}},{"type":"Feature","properties":{"station_name":"E&O AMBULATORY HERITAGE","fuel_type_code":"ELEC","address":"3000 Rogers Rd","city":"Wake Forest","zip":27587},"geometry":{"type":"Point","coordinates":[-78.522678,35.950936]}},{"type":"Feature","properties":{"station_name":"Wake Forest Crossing - Tesla Supercharger","fuel_type_code":"ELEC","address":"12536 Capital Blvd","city":"Wake Forest","zip":27587},"geometry":{"type":"Point","coordinates":[-78.532517,35.986507]}},{"type":"Feature","properties":{"station_name":"Sheetz Store #416","fuel_type_code":"E85","address":"1406 Arendell Ave","city":"Zebulon","zip":27597},"geometry":{"type":"Point","coordinates":[-78.32486,35.83943]},"id":319},{"type":"Feature","properties":{"station_name":"Zebulon","fuel_type_code":"ELEC","address":"1825 Old Hwy 264","city":"Zebulon","zip":27597},"geometry":{"type":"Point","coordinates":[-78.262317,35.8172541]}}]}